HORYU-4                 
1 41340U 16012D   19302.54566480  .00000595  00000-0  38388-4 0  9998
2 41340  31.0061   8.4794 0014076   6.9686 353.1144 15.01344640202991
E-ST@R-II               
1 41459U 16025D   19302.79230986  .00002294  00000-0  12087-3 0  9994
2 41459  98.1007  35.9925 0165542 270.8420  87.3819 15.05746218192578
AAUSAT 4                
1 41460U 16025E   19302.79676512  .00003475  00000-0  17622-3 0  9997
2 41460  98.0965  37.5856 0155685 262.3718  95.9796 15.07748327192727
DIWATA-1                
1 41463U 98067HT  19302.76944269  .00055822  00000-0  19772-3 0  9991
2 41463  51.6280 272.8661 0002594  65.9002 358.9098 15.88454723200872
BEESAT-4                
1 41619U 16040W   19302.86841497  .00001636  00000-0  71635-4 0  9996
2 41619  97.3528   2.5218 0009542 275.7012  84.3137 15.23412375174134
CANX-7                  
1 41788U 16059F   19302.78832287  .00008038  00000-0  11882-2 0  9990
2 41788  98.2409  20.4682 0023836 305.4431  54.4681 14.75299869165624
RAVAN                   
1 41849U 16067B   19302.82766960  .00001033  00000-0  91934-4 0  9992
2 41849  97.9246  43.9687 0006711 297.4170  62.6369 14.98337180161933
CELTEE 1                
1 41850U 16067C   19302.81769942  .00000452  00000-0  44506-4 0  9993
2 41850  97.9203  42.3277 0007467 303.5658  56.4850 14.97063700161844
OPTICUBE 04             
1 41851U 16067D   19302.84458546  .00000190  00000-0  21835-4 0  9991
2 41851  97.9207  42.0895 0007569 309.0195  51.0352 14.96849235161833
AEROCUBE 8D             
1 41852U 16067E   19302.85448186 -.00000208  00000-0 -12897-4 0  9992
2 41852  97.9214  41.9258 0008545 307.6642  52.3803 14.96780696161817
AEROCUBE 8C             
1 41853U 16067F   19302.81373595  .00000423  00000-0  42317-4 0  9997
2 41853  97.9204  41.8095 0008808 306.8791  53.1622 14.96739576161801
PROMETHEUS 2-1          
1 41854U 16067G   19302.82744429  .00001073  00000-0  98510-4 0  9995
2 41854  97.9218  42.0199 0008808 306.7001  53.3410 14.96992278161816
PROMETHEUS 2-3          
1 41855U 16067H   19302.82927767  .00001114  00000-0  10207-3 0  9996
2 41855  97.9221  42.0431 0008953 307.2935  52.7469 14.96999558161818
INS-1B                  
1 41954U 17008G   19302.77781321  .00001556  00000-0  66678-4 0  9994
2 41954  97.3859   5.9888 0010208  45.7079 314.4994 15.24218391150070
BGUSAT                  
1 41999U 17008BD  19302.63235110  .00002596  00000-0  10200-3 0  9992
2 41999  97.3947   8.8005 0009366  57.7238 302.4907 15.26560714149578
DIDO-2                  
1 42000U 17008BE  19302.70849919  .00001171  00000-0  51076-4 0  9997
2 42000  97.3870   6.4712 0009932  62.4647 297.7599 15.24090647149464
PEASSS                  
1 42015U 17008BV  19302.71767882  .00001488  00000-0  62269-4 0  9999
2 42015  97.3884   7.6507 0007869  67.8195 292.3877 15.25104822150020
AL-FARABI 1             
1 42016U 17008BW  19302.85565849  .00001797  00000-0  73085-4 0  9995
2 42016  97.3901   8.4890 0007718  67.2406 292.9647 15.25804478150202
NAYIF-1 (EO-88)         
1 42017U 17008BX  19302.77459458  .00001857  00000-0  75370-4 0  9991
2 42017  97.3897   8.4198 0007746  67.5833 292.6225 15.25840367150213
ALTAIR PATHFINDER       
1 42711U 98067LS  19302.51211901  .00165625  22174-4  37748-3 0  9997
2 42711  51.6286 315.0610 0004957  33.8174 326.3150 15.97084333140178
NSIGHT                  
1 42726U 98067MF  19302.60839786  .00043063  00000-0  25571-3 0  9992
2 42726  51.6340 346.2961 0005383 351.6177   8.4733 15.77547559138756
UCLSAT                  
1 42765U 17036A   19302.72862828  .00001600  00000-0  70877-4 0  9999
2 42765  97.3357 357.7972 0012951 118.4924 241.7619 15.22990580131306
LITUANICASAT-2          
1 42768U 17036D   19302.82823841  .00002483  00000-0  10754-3 0  9992
2 42768  97.3397 357.5869 0016643 110.5444 249.7581 15.23204394130574
AALTO-1                 
1 42775U 17036L   19302.71679619  .00000967  00000-0  45899-4 0  9994
2 42775  97.3337 356.2181 0015566 111.4722 248.8176 15.21501758130438
URSA MAIOR              
1 42776U 17036M   19302.73120713  .00001084  00000-0  50860-4 0  9998
2 42776  97.3348 356.4249 0015387 111.2926 248.9955 15.21649374130447
COMPASS 2               
1 42777U 17036N   19302.77531551  .00001990  00000-0  86834-4 0  9995
2 42777  97.3392 358.0011 0014119 111.2999 248.9747 15.23222690130522
DIAMOND RED             
1 42783U 17036U   19302.88848960  .00001234  00000-0  56281-4 0  9993
2 42783  97.3355 357.4434 0013637 119.4925 240.7673 15.22403833130519
PEGASUS                 
1 42784U 17036V   19302.84102542  .00001436  00000-0  64385-4 0  9997
2 42784  97.3361 357.6835 0013505 118.9680 241.2912 15.22724968130528
DIAMOND GREEN           
1 42785U 17036W   19302.82161122  .00001259  00000-0  57361-4 0  9994
2 42785  97.3358 357.4060 0013526 120.2361 240.0217 15.22403339130574
DIAMOND BLUE            
1 42786U 17036X   19302.88650063  .00001235  00000-0  56321-4 0  9997
2 42786  97.3358 357.4666 0013371 120.2004 240.0559 15.22403796130586
NUDTSAT                 
1 42787U 17036Y   19302.88216872  .00001559  00000-0  67562-4 0  9992
2 42787  97.3405 358.6361 0011667 111.1797 249.0666 15.23791833130423
SUCHAI                  
1 42788U 17036Z   19302.67896898  .00001638  00000-0  72092-4 0  9994
2 42788  97.3364 357.9186 0013125 118.5401 241.7159 15.23182656130590
SKCUBE                  
1 42789U 17036AA  19302.83549761  .00001592  00000-0  70396-4 0  9991
2 42789  97.3361 357.9863 0012960 118.1581 242.0967 15.23064322130535
VZLUSAT-1               
1 42790U 17036AB  19302.80375605  .00002048  00000-0  87849-4 0  9992
2 42790  97.3379 358.5571 0012556 117.0416 243.2104 15.23792721130565
ROBUSTA-1B              
1 42792U 17036AD  19302.88275955  .00001522  00000-0  67082-4 0  9992
2 42792  97.3361 358.2156 0012568 118.4055 241.8450 15.23243248130564
CICERO 6                
1 42793U 17036AE  19302.71766296  .00001111  00000-0  50482-4 0  9998
2 42793  97.3344 357.7235 0011770 120.2978 239.9425 15.22758848130596
D-SAT                   
1 42794U 17036AF  19302.67621453  .00000325  00000-0  33288-4 0  9990
2 42794  97.5247 341.4235 0127719  58.7618 302.6041 14.91156548128153
CORVUS BC2              
1 42846U 17042X   19302.73829014  .00000069  00000-0  12054-4 0  9998
2 42846  97.5478 191.3076 0009056 340.5065  19.5807 14.92017111124853
CORVUS BC1              
1 42847U 17042Y   19302.74964353  .00000069  00000-0  12032-4 0  9992
2 42847  97.5481 191.4471 0008691 340.2629  19.8253 14.92117361124851
MIRATA                  
1 43015U 17073C   19302.82304182  .00001286  00000-0  10418-3 0  9998
2 43015  97.7178 218.8511 0256196  83.8978 279.1358 14.79177799104979
MAKERSAT 0              
1 43016U 17073D   19302.72611826  .00000907  00000-0  74924-4 0  9996
2 43016  97.7211 218.9610 0258553  84.7877 278.2782 14.78878295104953
ASTERIA                 
1 43020U 98067NH  19302.56675505  .00045090  00000-0  27601-3 0  9990
2 43020  51.6412 358.3422 0001967 338.5147  21.5770 15.76855143110774
DELLINGR (RBLE)         
1 43021U 98067NJ  19302.67808185  .00012094  00000-0  12494-3 0  9997
2 43021  51.6388  19.2362 0001568 264.5173  95.5643 15.65223591110502
AEROCUBE 7B (OCSD B)    
1 43042U 17071F   19302.92258901  .00004057  00000-0  10333-3 0  9999
2 43042  51.6365 121.2387 0003880 278.5287  81.5259 15.41928961106635
AEROCUBE 7C (OCSD C)    
1 43043U 17071G   19302.92264091  .00003860  00000-0  98804-4 0  9998
2 43043  51.6365 121.2538 0004111 284.0325  76.0203 15.41919685106605
CHEFSAT                 
1 43044U 17071H   19302.73132722  .00006992  00000-0  15392-3 0  9992
2 43044  51.6376 114.1417 0003985 281.1033  78.9505 15.45123321106689
ASGARDIA 1              
1 43049U 17071N   19302.86422156  .00003514  00000-0  90444-4 0  9993
2 43049  51.6375 120.9073 0001726 306.2243  53.8583 15.42041101106601
ISARA                   
1 43050U 17071P   19302.85571725  .00006413  00000-0  14465-3 0  9990
2 43050  51.6359 114.9094 0001544 298.0096  62.0734 15.44550976106688
PROPCUBE 2 (FAUNA)      
1 43052U 17071R   19302.90893693  .00004594  00000-0  11406-3 0  9999
2 43052  51.6369 119.7249 0001658 300.5519  59.5303 15.42369320106616
CORVUS BC3              
1 43118U 18004H   19302.79090990  .00001017  00000-0  46221-4 0  9996
2 43118  97.4733   9.6197 0011492 139.0550 221.1552 15.23012700 99731
MICROMAS-2A             
1 43131U 18004W   19302.80997233  .00002160  00000-0  90769-4 0  9995
2 43131  97.4766  10.6511 0010488 139.3130 220.8892 15.24483265 99793
SPACEBEE-4              
1 43139U 18004AE  19302.88414541  .00003163  00000-0  12779-3 0  9995
2 43139  97.4789  11.4204 0009920 140.7335 219.4624 15.25466402 99844
SPACEBEE-3              
1 43140U 18004AF  19302.68193704  .00003922  00000-0  15481-3 0  9996
2 43140  97.4800  11.5938 0009708 140.8116 219.3827 15.26099906 99832
SPACEBEE-2              
1 43141U 18004AG  19302.89770894  .00003969  00000-0  15558-3 0  9997
2 43141  97.4808  11.9398 0009693 139.7280 220.4678 15.26320138 99872
SPACEBEE-1              
1 43142U 18004AH  19302.84522184  .00003903  00000-0  15195-3 0  9995
2 43142  97.4810  12.0332 0009708 140.0863 220.1091 15.26564305 99866
CICERO 7                
1 43143U 18004AJ  19302.88853907  .00002047  00000-0  85930-4 0  9993
2 43143  97.4748  10.9413 0008466 145.6379 214.5408 15.24591321 99828
GOMX-4B                 
1 43196U 18015E   19302.92689366  .00000832  00000-0  37148-4 0  9992
2 43196  97.4079  68.7384 0018300 195.1735 164.8934 15.24049104 96639
GOMX-4A                 
1 43197U 18015F   19302.78753777  .00001412  00000-0  60715-4 0  9996
2 43197  97.4088  68.6376 0018600 195.8522 268.4472 15.24170128 96622
1KUNS-PF                
1 43466U 98067NP  19302.63411532  .00035924  00000-0  27562-3 0  9991
2 43466  51.6362  17.3680 0001903 345.3626  14.7317 15.71715166 83784
